STARLINK-36840          
1 67850U 26034A   26071.95582143  .00088316  00000+0  44602-3 0  9998
2 67850  53.1582 194.9902 0001708  49.7018 310.4154 15.80892130  4459
STARLINK-36348          
1 67851U 26034B   26071.95506802  .00139239  00000+0  69571-3 0  9990
2 67851  53.1584 194.9845 0000910  65.9242 294.1876 15.80934226  4453
STARLINK-36785          
1 67853U 26034D   26071.95357105  .00209615  00000+0  10365-2 0  9994
2 67853  53.1583 194.9742 0001892  45.2124 314.9052 15.80945494  4456
STARLINK-36608          
1 67854U 26034E   26071.88959769  .00289388  00000+0  14132-2 0  9992
2 67854  53.1582 195.2855 0001453  44.7600 315.3540 15.80993913  4435
STARLINK-36838          
1 67855U 26034F   26071.88884511  .00261276  00000+0  12804-2 0  9995
2 67855  53.1584 195.2799 0001439  43.5872 316.5264 15.80994848  4442
STARLINK-36843          
1 67856U 26034G   26071.82412687  .00260254  00000+0  12756-2 0  9992
2 67856  53.1582 195.5877 0001221  50.5751 309.5380 15.80995331  4432
STARLINK-36828          
1 67857U 26034H   26071.82487536  .00261035  00000+0  12791-2 0  9995
2 67857  53.1582 195.5927 0000834  62.3321 297.7787 15.80997775  4435
STARLINK-36837          
1 67858U 26034J   26071.82337763  .00253552  00000+0  12442-2 0  9990
2 67858  53.1585 195.5819 0000913  52.3564 307.7542 15.80987693  4434
STARLINK-36393          
1 67859U 26034K   26071.94907558  .00063786  00000+0  32414-3 0  9999
2 67859  53.1587 194.9434 0003161  34.6774 325.4455 15.80881068  4458
STARLINK-35873          
1 67860U 26034L   26071.94831442  .00300225  00000+0  14635-2 0  9995
2 67860  53.1584 194.9378 0000935  69.8378 290.2746 15.81004240  4485
